ONEWEB-0249             
1 48967U 21060A   25108.53307056 -.00000043  00000+0 -14604-3 0  9994
2 48967  87.9028 313.4340 0001688  88.3508 271.7816 13.16596352185022
ONEWEB-0250             
1 48968U 21060B   25107.58785258  .00000120  00000+0  24410-3 0  9993
2 48968  87.9029 312.7706 0000649  87.7464 272.3747 13.25709748185117
ONEWEB-0252             
1 48970U 21060D   25107.95677631  .00000062  00000+0  12770-3 0  9993
2 48970  87.9033 313.5415 0002057  82.3666 277.7698 13.16595174183704
ONEWEB-0253             
1 48971U 21060E   25107.94568831  .00000058  00000+0  11754-3 0  9990
2 48971  87.9029 313.5494 0001600  80.5697 279.5615 13.16595090183632
ONEWEB-0254             
1 48972U 21060F   25107.95518467 -.00000021  00000+0 -88969-4 0  9997
2 48972  87.9031 313.5305 0001287  80.3576 279.7700 13.16595888183634
ONEWEB-0255             
1 48973U 21060G   25108.52516716  .00000030  00000+0  44802-4 0  9993
2 48973  87.9030 313.4504 0001488  82.2595 277.8705 13.16595347185073
ONEWEB-0256             
1 48974U 21060H   25107.94331173  .00000067  00000+0  14117-3 0  9996
2 48974  87.9035 313.5792 0001926  86.8411 273.2940 13.16591955183679
ONEWEB-0257             
1 48975U 21060J   25107.59578627 -.00000015  00000+0 -74054-4 0  9997
2 48975  87.9032 313.6109 0001699  80.8644 279.2679 13.16595740184873
